{
  "type": "FeatureCollection",
  "features": [
    {
      "type": "Feature",
      "properties": {
        "norad_id": 44334,
        "name": "EUTELSAT 7C",
        "group": "eutelsat",
        "lat": -0.03979705074247373,
        "lon": 63.35249916047402,
        "alt_km": 35801.01859365097,
        "timestamp": "2025-12-07T22:37:42.754430+00:00",
        "meta_object_name": "EUTELSAT 7C",
        "meta_object_id": "2019-034B",
        "meta_epoch": "2025-12-06T03:25:30.364320",
        "meta_mean_motion": 1.00270039,
        "meta_eccentricity": 0.00034504,
        "meta_inclination": 0.0751,
        "meta_ra_of_asc_node": 179.1623,
        "meta_arg_of_pericenter": 60.529,
        "meta_mean_anomaly": 253.8532,
        "meta_ephemeris_type": 0,
        "meta_classification_type": "U",
        "meta_norad_cat_id": 44334,
        "meta_element_set_no": 999,
        "meta_rev_at_epoch": 490,
        "meta_bstar": 0,
        "meta_mean_motion_dot": 5.6e-07,
        "meta_mean_motion_ddot": 0,
        "tle_line1": "1 44334U 19034B   25340.14271255  .00000056  00000+0  00000+0 0  9995",
        "tle_line2": "2 44334   0.0751 179.1623 0003450  60.5290 253.8532  1.00270039  4909"
      },
      "geometry": {
        "type": "Point",
        "coordinates": [
          63.35249916047402,
          -0.03979705074247373
        ]
      }
    },
    {
      "type": "Feature",
      "properties": {
        "norad_id": 44624,
        "name": "EUTELSAT 5 WEST B",
        "group": "eutelsat",
        "lat": 0.08589042613243063,
        "lon": 51.39800131698411,
        "alt_km": 35800.05173845471,
        "timestamp": "2025-12-07T22:37:42.754442+00:00",
        "meta_object_name": "EUTELSAT 5 WEST B",
        "meta_object_id": "2019-067A",
        "meta_epoch": "2025-12-07T06:45:46.956672",
        "meta_mean_motion": 1.00270619,
        "meta_eccentricity": 0.00035801,
        "meta_inclination": 0.0663,
        "meta_ra_of_asc_node": 337.009,
        "meta_arg_of_pericenter": 280.0477,
        "meta_mean_anomaly": 275.6986,
        "meta_ephemeris_type": 0,
        "meta_classification_type": "U",
        "meta_norad_cat_id": 44624,
        "meta_element_set_no": 999,
        "meta_rev_at_epoch": 2251,
        "meta_bstar": 0,
        "meta_mean_motion_dot": -3.8e-07,
        "meta_mean_motion_ddot": 0,
        "tle_line1": "1 44624U 19067A   25341.28179348 -.00000038  00000+0  00000+0 0  9990",
        "tle_line2": "2 44624   0.0663 337.0090 0003580 280.0477 275.6986  1.00270619 22512"
      },
      "geometry": {
        "type": "Point",
        "coordinates": [
          51.39800131698411,
          0.08589042613243063
        ]
      }
    },
    {
      "type": "Feature",
      "properties": {
        "norad_id": 45027,
        "name": "EUTELSAT KONNECT",
        "group": "eutelsat",
        "lat": -0.012104051391322892,
        "lon": 63.57722912147424,
        "alt_km": 35792.618330790894,
        "timestamp": "2025-12-07T22:37:42.754454+00:00",
        "meta_object_name": "EUTELSAT KONNECT",
        "meta_object_id": "2020-005B",
        "meta_epoch": "2025-12-07T06:49:16.621824",
        "meta_mean_motion": 1.00268501,
        "meta_eccentricity": 0.00017822,
        "meta_inclination": 0.0704,
        "meta_ra_of_asc_node": 98.0332,
        "meta_arg_of_pericenter": 187.0322,
        "meta_mean_anomaly": 260.754,
        "meta_ephemeris_type": 0,
        "meta_classification_type": "U",
        "meta_norad_cat_id": 45027,
        "meta_element_set_no": 999,
        "meta_rev_at_epoch": 2241,
        "meta_bstar": 0,
        "meta_mean_motion_dot": 5.4e-07,
        "meta_mean_motion_ddot": 0,
        "tle_line1": "1 45027U 20005B   25341.28422016  .00000054  00000+0  00000+0 0  9992",
        "tle_line2": "2 45027   0.0704  98.0332 0001782 187.0322 260.7540  1.00268501 22413"
      },
      "geometry": {
        "type": "Point",
        "coordinates": [
          63.57722912147424,
          -0.012104051391322892
        ]
      }
    },
    {
      "type": "Feature",
      "properties": {
        "norad_id": 49056,
        "name": "EUTELSAT QUANTUM",
        "group": "eutelsat",
        "lat": 0.03973232157563464,
        "lon": 104.06774929325836,
        "alt_km": 35801.380893805166,
        "timestamp": "2025-12-07T22:37:42.754466+00:00",
        "meta_object_name": "EUTELSAT QUANTUM",
        "meta_object_id": "2021-069B",
        "meta_epoch": "2025-12-07T03:35:19.517280",
        "meta_mean_motion": 1.00270861,
        "meta_eccentricity": 0.00037105,
        "meta_inclination": 0.0287,
        "meta_ra_of_asc_node": 45.2987,
        "meta_arg_of_pericenter": 223.2959,
        "meta_mean_anomaly": 269.1142,
        "meta_ephemeris_type": 0,
        "meta_classification_type": "U",
        "meta_norad_cat_id": 49056,
        "meta_element_set_no": 999,
        "meta_rev_at_epoch": 1600,
        "meta_bstar": 0,
        "meta_mean_motion_dot": 1.31e-06,
        "meta_mean_motion_ddot": 0,
        "tle_line1": "1 49056U 21069B   25341.14953145  .00000131  00000+0  00000+0 0  9992",
        "tle_line2": "2 49056   0.0287  45.2987 0003710 223.2959 269.1142  1.00270861 16008"
      },
      "geometry": {
        "type": "Point",
        "coordinates": [
          104.06774929325836,
          0.03973232157563464
        ]
      }
    },
    {
      "type": "Feature",
      "properties": {
        "norad_id": 53765,
        "name": "EUTELSAT KONNECT VHTS",
        "group": "eutelsat",
        "lat": -0.01576765368631692,
        "lon": 59.079925795207075,
        "alt_km": 35798.711087812124,
        "timestamp": "2025-12-07T22:37:42.754478+00:00",
        "meta_object_name": "EUTELSAT KONNECT VHTS",
        "meta_object_id": "2022-110A",
        "meta_epoch": "2025-12-07T06:47:54.253248",
        "meta_mean_motion": 1.00271597,
        "meta_eccentricity": 0.00030323,
        "meta_inclination": 0.0619,
        "meta_ra_of_asc_node": 106.3169,
        "meta_arg_of_pericenter": 122.232,
        "meta_mean_anomaly": 312.4415,
        "meta_ephemeris_type": 0,
        "meta_classification_type": "U",
        "meta_norad_cat_id": 53765,
        "meta_element_set_no": 999,
        "meta_rev_at_epoch": 490,
        "meta_bstar": 0,
        "meta_mean_motion_dot": 2.2e-07,
        "meta_mean_motion_ddot": 0,
        "tle_line1": "1 53765U 22110A   25341.28326682  .00000022  00000+0  00000+0 0  9996",
        "tle_line2": "2 53765   0.0619 106.3169 0003032 122.2320 312.4415  1.00271597  4905"
      },
      "geometry": {
        "type": "Point",
        "coordinates": [
          59.079925795207075,
          -0.01576765368631692
        ]
      }
    },
    {
      "type": "Feature",
      "properties": {
        "norad_id": 54048,
        "name": "EUTELSAT HOTBIRD 13F",
        "group": "eutelsat",
        "lat": 0.05079802658219775,
        "lon": 69.4204599366764,
        "alt_km": 35783.47239824941,
        "timestamp": "2025-12-07T22:37:42.754490+00:00",
        "meta_object_name": "EUTELSAT HOTBIRD 13F",
        "meta_object_id": "2022-134A",
        "meta_epoch": "2025-12-06T21:50:38.745024",
        "meta_mean_motion": 1.00273163,
        "meta_eccentricity": 0.00021775,
        "meta_inclination": 0.0467,
        "meta_ra_of_asc_node": 293.5462,
        "meta_arg_of_pericenter": 59.1956,
        "meta_mean_anomaly": 63.8704,
        "meta_ephemeris_type": 0,
        "meta_classification_type": "U",
        "meta_norad_cat_id": 54048,
        "meta_element_set_no": 999,
        "meta_rev_at_epoch": 1144,
        "meta_bstar": 0,
        "meta_mean_motion_dot": 9.3e-07,
        "meta_mean_motion_ddot": 0,
        "tle_line1": "1 54048U 22134A   25340.91017066  .00000093  00000+0  00000+0 0  9997",
        "tle_line2": "2 54048   0.0467 293.5462 0002177  59.1956  63.8704  1.00273163 11444"
      },
      "geometry": {
        "type": "Point",
        "coordinates": [
          69.4204599366764,
          0.05079802658219775
        ]
      }
    },
    {
      "type": "Feature",
      "properties": {
        "norad_id": 54225,
        "name": "EUTELSAT HOTBIRD 13G",
        "group": "eutelsat",
        "lat": 0.01415777149849515,
        "lon": 69.3559544464982,
        "alt_km": 35790.454093076565,
        "timestamp": "2025-12-07T22:37:42.754502+00:00",
        "meta_object_name": "EUTELSAT HOTBIRD 13G",
        "meta_object_id": "2022-146A",
        "meta_epoch": "2025-12-07T06:50:53.966976",
        "meta_mean_motion": 1.00270864,
        "meta_eccentricity": 0.00019227,
        "meta_inclination": 0.0485,
        "meta_ra_of_asc_node": 236.5565,
        "meta_arg_of_pericenter": 313.7466,
        "meta_mean_anomaly": 1.7285,
        "meta_ephemeris_type": 0,
        "meta_classification_type": "U",
        "meta_norad_cat_id": 54225,
        "meta_element_set_no": 999,
        "meta_rev_at_epoch": 554,
        "meta_bstar": 0,
        "meta_mean_motion_dot": 9.2e-07,
        "meta_mean_motion_ddot": 0,
        "tle_line1": "1 54225U 22146A   25341.28534684  .00000092  00000+0  00000+0 0  9997",
        "tle_line2": "2 54225   0.0485 236.5565 0001922 313.7466   1.7285  1.00270864  5548"
      },
      "geometry": {
        "type": "Point",
        "coordinates": [
          69.3559544464982,
          0.01415777149849515
        ]
      }
    }
  ]
}